0 FENGYUN 1C DEB
1 36675U 99025DYV 13288.47017041  .00001833  00000-0  99458-3 0  2039
2 36675 099.1778 018.9730 0040302 183.1163 177.1799 14.13299257247894
0 FENGYUN 1C DEB
1 36675U 99025DYV 13290.02763518  .00001897  00000-0  10273-2 0  2048
2 36675 099.1829 020.5893 0043105 173.9370 186.2937 14.13307158248112
0 FENGYUN 1C DEB
1 36675U 99025DYV 13296.04518487  .00002212  00000-0  11949-2 0  2053
2 36675 099.1749 026.7463 0039046 157.4529 203.1127 14.13341788248966
